[{"OBJECT_NAME":"FENGYUN 1C DEB","OBJECT_ID":"1999-025BYB","EPOCH":"2026-03-14T13:41:55.381632","MEAN_MOTION":14.56483946,"ECCENTRICITY":0.02857323,"INCLINATION":98.2338,"RA_OF_ASC_NODE":344.8033,"ARG_OF_PERICENTER":220.3884,"MEAN_ANOMALY":137.5786,"EPHEMERIS_TYPE":0,"CLASSIFICATION_TYPE":"U","NORAD_CAT_ID":31536,"ELEMENT_SET_NO":999,"REV_AT_EPOCH":97593,"BSTAR":0.0012631048,"MEAN_MOTION_DOT":9.781e-5,"MEAN_MOTION_DDOT":0},{"OBJECT_NAME":"FENGYUN 1C DEB","OBJECT_ID":"1999-025BYC","EPOCH":"2026-03-11T15:55:55.830432","MEAN_MOTION":14.23460424,"ECCENTRICITY":0.03382888,"INCLINATION":99.3021,"RA_OF_ASC_NODE":233.7751,"ARG_OF_PERICENTER":71.6262,"MEAN_ANOMALY":292.1388,"EPHEMERIS_TYPE":0,"CLASSIFICATION_TYPE":"U","NORAD_CAT_ID":31537,"ELEMENT_SET_NO":999,"REV_AT_EPOCH":94545,"BSTAR":0.0026449213,"MEAN_MOTION_DOT":0.00010841,"MEAN_MOTION_DDOT":0},{"OBJECT_NAME":"FENGYUN 1C DEB","OBJECT_ID":"1999-025BYD","EPOCH":"2026-03-13T21:49:24.720960","MEAN_MOTION":15.23202475,"ECCENTRICITY":0.00112872,"INCLINATION":98.2465,"RA_OF_ASC_NODE":313.7878,"ARG_OF_PERICENTER":338.5137,"MEAN_ANOMALY":21.5622,"EPHEMERIS_TYPE":0,"CLASSIFICATION_TYPE":"U","NORAD_CAT_ID":31538,"ELEMENT_SET_NO":999,"REV_AT_EPOCH":68380,"BSTAR":0.0071607114,"MEAN_MOTION_DOT":0.00173461,"MEAN_MOTION_DDOT":0},{"OBJECT_NAME":"FENGYUN 1C DEB","OBJECT_ID":"1999-025BYG","EPOCH":"2026-03-13T21:26:11.781888","MEAN_MOTION":14.70359487,"ECCENTRICITY":0.00754765,"INCLINATION":98.9881,"RA_OF_ASC_NODE":229.4029,"ARG_OF_PERICENTER":317.9111,"MEAN_ANOMALY":41.6309,"EPHEMERIS_TYPE":0,"CLASSIFICATION_TYPE":"U","NORAD_CAT_ID":31541,"ELEMENT_SET_NO":999,"REV_AT_EPOCH":99762,"BSTAR":0.00085053407,"MEAN_MOTION_DOT":5.312e-5,"MEAN_MOTION_DDOT":0},{"OBJECT_NAME":"FENGYUN 1C DEB","OBJECT_ID":"1999-025BYH","EPOCH":"2026-03-14T08:53:05.218656","MEAN_MOTION":14.23346535,"ECCENTRICITY":0.00444056,"INCLINATION":98.7207,"RA_OF_ASC_NODE":131.5707,"ARG_OF_PERICENTER":301.8977,"MEAN_ANOMALY":57.7885,"EPHEMERIS_TYPE":0,"CLASSIFICATION_TYPE":"U","NORAD_CAT_ID":31542,"ELEMENT_SET_NO":999,"REV_AT_EPOCH":97243,"BSTAR":0.0011115641,"MEAN_MOTION_DOT":2.502e-5,"MEAN_MOTION_DDOT":0},{"OBJECT_NAME":"FENGYUN 1C DEB","OBJECT_ID":"1999-025BYK","EPOCH":"2026-03-12T08:42:57.768768","MEAN_MOTION":14.14603072,"ECCENTRICITY":0.0031535,"INCLINATION":98.8165,"RA_OF_ASC_NODE":126.5532,"ARG_OF_PERICENTER":17.8849,"MEAN_ANOMALY":342.3426,"EPHEMERIS_TYPE":0,"CLASSIFICATION_TYPE":"U","NORAD_CAT_ID":31544,"ELEMENT_SET_NO":999,"REV_AT_EPOCH":97024,"BSTAR":0.00072774,"MEAN_MOTION_DOT":1.361e-5,"MEAN_MOTION_DDOT":0},{"OBJECT_NAME":"FENGYUN 1C DEB","OBJECT_ID":"1999-025BYM","EPOCH":"2026-03-12T23:05:59.182656","MEAN_MOTION":14.1375898,"ECCENTRICITY":0.01438088,"INCLINATION":98.233,"RA_OF_ASC_NODE":139.4232,"ARG_OF_PERICENTER":235.0874,"MEAN_ANOMALY":123.6718,"EPHEMERIS_TYPE":0,"CLASSIFICATION_TYPE":"U","NORAD_CAT_ID":31546,"ELEMENT_SET_NO":999,"REV_AT_EPOCH":96063,"BSTAR":0.001685081,"MEAN_MOTION_DOT":3.479e-5,"MEAN_MOTION_DDOT":0},{"OBJECT_NAME":"FENGYUN 1C DEB","OBJECT_ID":"1999-025BYN","EPOCH":"2026-03-13T01:51:12.394656","MEAN_MOTION":14.23719466,"ECCENTRICITY":0.00506927,"INCLINATION":99.0792,"RA_OF_ASC_NODE":123.7395,"ARG_OF_PERICENTER":356.2718,"MEAN_ANOMALY":3.8075,"EPHEMERIS_TYPE":0,"CLASSIFICATION_TYPE":"U","NORAD_CAT_ID":31547,"ELEMENT_SET_NO":999,"REV_AT_EPOCH":65302,"BSTAR":0.0013608897,"MEAN_MOTION_DOT":3.103e-5,"MEAN_MOTION_DDOT":0},{"OBJECT_NAME":"FENGYUN 1C DEB","OBJECT_ID":"1999-025BYR","EPOCH":"2026-03-14T06:28:22.194048","MEAN_MOTION":14.4073021,"ECCENTRICITY":0.01898686,"INCLINATION":98.3159,"RA_OF_ASC_NODE":75.1865,"ARG_OF_PERICENTER":357.2817,"MEAN_ANOMALY":2.7323,"EPHEMERIS_TYPE":0,"CLASSIFICATION_TYPE":"U","NORAD_CAT_ID":31550,"ELEMENT_SET_NO":999,"REV_AT_EPOCH":66772,"BSTAR":0.00089506994,"MEAN_MOTION_DOT":3.495e-5,"MEAN_MOTION_DDOT":0},{"OBJECT_NAME":"FENGYUN 1C DEB","OBJECT_ID":"1999-025BYT","EPOCH":"2026-03-14T14:51:20.870784","MEAN_MOTION":14.48571077,"ECCENTRICITY":0.00855336,"INCLINATION":98.6182,"RA_OF_ASC_NODE":202.152,"ARG_OF_PERICENTER":105.842,"MEAN_ANOMALY":255.2223,"EPHEMERIS_TYPE":0,"CLASSIFICATION_TYPE":"U","NORAD_CAT_ID":31552,"ELEMENT_SET_NO":999,"REV_AT_EPOCH":97205,"BSTAR":0.0043128158,"MEAN_MOTION_DOT":0.00016967,"MEAN_MOTION_DDOT":0},{"OBJECT_NAME":"FENGYUN 1C DEB","OBJECT_ID":"1999-025BYU","EPOCH":"2026-03-11T15:54:19.981728","MEAN_MOTION":14.31064789,"ECCENTRICITY":0.00306791,"INCLINATION":98.9952,"RA_OF_ASC_NODE":133.4995,"ARG_OF_PERICENTER":196.8379,"MEAN_ANOMALY":314.8285,"EPHEMERIS_TYPE":0,"CLASSIFICATION_TYPE":"U","NORAD_CAT_ID":31553,"ELEMENT_SET_NO":999,"REV_AT_EPOCH":97181,"BSTAR":0.0016036606,"MEAN_MOTION_DOT":4.201e-5,"MEAN_MOTION_DDOT":0},{"OBJECT_NAME":"FENGYUN 1C DEB","OBJECT_ID":"1999-025BYV","EPOCH":"2026-03-13T20:52:50.892672","MEAN_MOTION":14.54484573,"ECCENTRICITY":0.00362953,"INCLINATION":98.9082,"RA_OF_ASC_NODE":217.5192,"ARG_OF_PERICENTER":109.2827,"MEAN_ANOMALY":251.23,"EPHEMERIS_TYPE":0,"CLASSIFICATION_TYPE":"U","NORAD_CAT_ID":31554,"ELEMENT_SET_NO":999,"REV_AT_EPOCH":66180,"BSTAR":0.0035945673,"MEAN_MOTION_DOT":0.00015426,"MEAN_MOTION_DDOT":0},{"OBJECT_NAME":"FENGYUN 1C DEB","OBJECT_ID":"1999-025BYW","EPOCH":"2026-03-12T02:46:44.574816","MEAN_MOTION":14.4583545,"ECCENTRICITY":0.01509996,"INCLINATION":99.112,"RA_OF_ASC_NODE":36.6808,"ARG_OF_PERICENTER":292.1203,"MEAN_ANOMALY":66.4016,"EPHEMERIS_TYPE":0,"CLASSIFICATION_TYPE":"U","NORAD_CAT_ID":31555,"ELEMENT_SET_NO":999,"REV_AT_EPOCH":97854,"BSTAR":0.0018423753,"MEAN_MOTION_DOT":7.481e-5,"MEAN_MOTION_DDOT":0},{"OBJECT_NAME":"FENGYUN 1C DEB","OBJECT_ID":"1999-025BYZ","EPOCH":"2026-03-14T11:50:14.698752","MEAN_MOTION":14.38903599,"ECCENTRICITY":0.02112792,"INCLINATION":98.7845,"RA_OF_ASC_NODE":336.1663,"ARG_OF_PERICENTER":350.3775,"MEAN_ANOMALY":189.7611,"EPHEMERIS_TYPE":0,"CLASSIFICATION_TYPE":"U","NORAD_CAT_ID":31558,"ELEMENT_SET_NO":999,"REV_AT_EPOCH":98754,"BSTAR":0.00032805735,"MEAN_MOTION_DOT":1.255e-5,"MEAN_MOTION_DDOT":0},{"OBJECT_NAME":"FENGYUN 1C DEB","OBJECT_ID":"1999-025BZA","EPOCH":"2026-03-14T02:57:48.078432","MEAN_MOTION":14.65325284,"ECCENTRICITY":0.00523741,"INCLINATION":98.8738,"RA_OF_ASC_NODE":39.2568,"ARG_OF_PERICENTER":274.136,"MEAN_ANOMALY":143.8408,"EPHEMERIS_TYPE":0,"CLASSIFICATION_TYPE":"U","NORAD_CAT_ID":31559,"ELEMENT_SET_NO":999,"REV_AT_EPOCH":98894,"BSTAR":0.0017255369,"MEAN_MOTION_DOT":9.456e-5,"MEAN_MOTION_DDOT":0},{"OBJECT_NAME":"FENGYUN 1C DEB","OBJECT_ID":"1999-025BZB","EPOCH":"2026-03-14T08:38:59.103456","MEAN_MOTION":14.21253025,"ECCENTRICITY":0.01215249,"INCLINATION":98.5758,"RA_OF_ASC_NODE":111.9304,"ARG_OF_PERICENTER":43.027,"MEAN_ANOMALY":318.0332,"EPHEMERIS_TYPE":0,"CLASSIFICATION_TYPE":"U","NORAD_CAT_ID":31560,"ELEMENT_SET_NO":999,"REV_AT_EPOCH":97920,"BSTAR":6.3831476e-5,"MEAN_MOTION_DOT":1.08e-6,"MEAN_MOTION_DDOT":0},{"OBJECT_NAME":"FENGYUN 1C DEB","OBJECT_ID":"1999-025BZC","EPOCH":"2026-03-13T22:11:48.444864","MEAN_MOTION":14.02909639,"ECCENTRICITY":0.00555303,"INCLINATION":98.7233,"RA_OF_ASC_NODE":70.1161,"ARG_OF_PERICENTER":288.6087,"MEAN_ANOMALY":100.7176,"EPHEMERIS_TYPE":0,"CLASSIFICATION_TYPE":"U","NORAD_CAT_ID":31561,"ELEMENT_SET_NO":999,"REV_AT_EPOCH":96457,"BSTAR":0.00065160086,"MEAN_MOTION_DOT":9.81e-6,"MEAN_MOTION_DDOT":0},{"OBJECT_NAME":"FENGYUN 1C DEB","OBJECT_ID":"1999-025BZD","EPOCH":"2026-03-07T21:52:12.240192","MEAN_MOTION":14.42723375,"ECCENTRICITY":0.00563983,"INCLINATION":99.2665,"RA_OF_ASC_NODE":230.7126,"ARG_OF_PERICENTER":34.0285,"MEAN_ANOMALY":326.4498,"EPHEMERIS_TYPE":0,"CLASSIFICATION_TYPE":"U","NORAD_CAT_ID":31562,"ELEMENT_SET_NO":999,"REV_AT_EPOCH":98218,"BSTAR":0.0010597541,"MEAN_MOTION_DOT":3.546e-5,"MEAN_MOTION_DDOT":0},{"OBJECT_NAME":"FENGYUN 1C DEB","OBJECT_ID":"1999-025BZE","EPOCH":"2026-03-13T22:16:33.458592","MEAN_MOTION":14.6615904,"ECCENTRICITY":0.01121867,"INCLINATION":98.9622,"RA_OF_ASC_NODE":239.6046,"ARG_OF_PERICENTER":157.7639,"MEAN_ANOMALY":202.8483,"EPHEMERIS_TYPE":0,"CLASSIFICATION_TYPE":"U","NORAD_CAT_ID":31563,"ELEMENT_SET_NO":999,"REV_AT_EPOCH":99880,"BSTAR":0.0010244587,"MEAN_MOTION_DOT":6.128e-5,"MEAN_MOTION_DDOT":0},{"OBJECT_NAME":"FENGYUN 1C DEB","OBJECT_ID":"1999-025BZG","EPOCH":"2026-03-11T04:20:50.173728","MEAN_MOTION":14.41041847,"ECCENTRICITY":0.00508613,"INCLINATION":100.7176,"RA_OF_ASC_NODE":329.3464,"ARG_OF_PERICENTER":135.1732,"MEAN_ANOMALY":225.3575,"EPHEMERIS_TYPE":0,"CLASSIFICATION_TYPE":"U","NORAD_CAT_ID":31565,"ELEMENT_SET_NO":999,"REV_AT_EPOCH":65626,"BSTAR":0.0031333924,"MEAN_MOTION_DOT":0.0001019,"MEAN_MOTION_DDOT":0},{"OBJECT_NAME":"FENGYUN 1C DEB","OBJECT_ID":"1999-025BZH","EPOCH":"2026-03-14T15:56:20.737824","MEAN_MOTION":14.38677707,"ECCENTRICITY":0.00253161,"INCLINATION":98.9402,"RA_OF_ASC_NODE":141.3472,"ARG_OF_PERICENTER":89.8991,"MEAN_ANOMALY":63.4383,"EPHEMERIS_TYPE":0,"CLASSIFICATION_TYPE":"U","NORAD_CAT_ID":31566,"ELEMENT_SET_NO":999,"REV_AT_EPOCH":97712,"BSTAR":0.0021479259,"MEAN_MOTION_DOT":6.569e-5,"MEAN_MOTION_DDOT":0},{"OBJECT_NAME":"FENGYUN 1C DEB","OBJECT_ID":"1999-025BZJ","EPOCH":"2026-03-12T22:15:52.011648","MEAN_MOTION":13.93642083,"ECCENTRICITY":0.01851107,"INCLINATION":102.3132,"RA_OF_ASC_NODE":333.1867,"ARG_OF_PERICENTER":91.257,"MEAN_ANOMALY":270.9792,"EPHEMERIS_TYPE":0,"CLASSIFICATION_TYPE":"U","NORAD_CAT_ID":31567,"ELEMENT_SET_NO":999,"REV_AT_EPOCH":68665,"BSTAR":0.0029562894,"MEAN_MOTION_DOT":4.411e-5,"MEAN_MOTION_DDOT":0},{"OBJECT_NAME":"FENGYUN 1C DEB","OBJECT_ID":"1999-025BZK","EPOCH":"2026-03-14T11:50:19.847328","MEAN_MOTION":14.04363832,"ECCENTRICITY":0.01243631,"INCLINATION":102.0502,"RA_OF_ASC_NODE":350.1502,"ARG_OF_PERICENTER":256.0378,"MEAN_ANOMALY":102.6921,"EPHEMERIS_TYPE":0,"CLASSIFICATION_TYPE":"U","NORAD_CAT_ID":31568,"ELEMENT_SET_NO":999,"REV_AT_EPOCH":95867,"BSTAR":0.0029790029,"MEAN_MOTION_DOT":5.013e-5,"MEAN_MOTION_DDOT":0}]
